{"fetched_at":"2026-03-29T16:36:15Z","count":15609,"tles":[{"name":"ORBCOMM FM06","line1":"1 25118U 97084G   26087.68697354  .00001640  00000+0  48281-3 0  9992","line2":"2 25118  45.0140  80.1792 0002714 274.6610 255.2153 14.47335555482728","category":"Other"}]}